[{"OBJECT_NAME":"SHIJIAN-6 02B (SJ-6 02B)","OBJECT_ID":"2006-046B","EPOCH":"2026-03-09T23:09:06.940224","MEAN_MOTION":15.01001333,"ECCENTRICITY":0.00140021,"INCLINATION":97.7065,"RA_OF_ASC_NODE":98.697,"ARG_OF_PERICENTER":42.7506,"MEAN_ANOMALY":317.4805,"EPHEMERIS_TYPE":0,"CLASSIFICATION_TYPE":"U","NORAD_CAT_ID":29506,"ELEMENT_SET_NO":999,"REV_AT_EPOCH":5585,"BSTAR":0.00024683398,"MEAN_MOTION_DOT":3.096e-5,"MEAN_MOTION_DDOT":0},{"OBJECT_NAME":"STARLINK-5859","OBJECT_ID":"2023-037B","EPOCH":"2026-03-09T22:35:44.252160","MEAN_MOTION":14.98330181,"ECCENTRICITY":0.00029692,"INCLINATION":69.9982,"RA_OF_ASC_NODE":303.8736,"ARG_OF_PERICENTER":266.2403,"MEAN_ANOMALY":93.8417,"EPHEMERIS_TYPE":0,"CLASSIFICATION_TYPE":"U","NORAD_CAT_ID":55915,"ELEMENT_SET_NO":999,"REV_AT_EPOCH":16421,"BSTAR":-6.877978e-6,"MEAN_MOTION_DOT":-1.75e-6,"MEAN_MOTION_DDOT":0}]
